ONEWEB-0281             
1 48999U 21060AJ  23059.13508813  .00000099  00000+0  22534-3 0  9992
2 48999  87.9008 108.7419 0002120  88.9609 271.1765 13.16596429 82373
ONEWEB-0281             
1 48999U 21060AJ  23059.51507249  .00000036  00000+0  59734-4 0  9990
2 48999  87.9009 108.6661 0002111  89.1774 270.9599 13.16596582 81111
ONEWEB-0281             
1 48999U 21060AJ  23059.81905963  .00000083  00000+0  18223-3 0  9997
2 48999  87.9008 108.6054 0002109  88.7140 271.4233 13.16596788 81158
ONEWEB-0281             
1 48999U 21060AJ  23060.19904385  .00000070  00000+0  14919-3 0  9991
2 48999  87.9007 108.5296 0002112  88.6310 271.5063 13.16596815 82510
ONEWEB-0281             
1 48999U 21060AJ  23060.88301614  .00000066  00000+0  13774-3 0  9996
2 48999  87.9006 108.3931 0002098  88.7849 271.3522 13.16595797 81294
ONEWEB-0281             
1 48999U 21060AJ  23061.56698700  .00000067  00000+0  14238-3 0  9994
2 48999  87.9004 108.2567 0002074  88.3790 271.7578 13.16596401 81389
ONEWEB-0281             
1 48999U 21060AJ  23062.17496147  .00000100  00000+0  22776-3 0  9997
2 48999  87.9003 108.1354 0002077  87.9337 272.2032 13.16596393 81466
ONEWEB-0281             
1 48999U 21060AJ  23062.17496147  .00000100  00000+0  22776-3 0  9997
2 48999  87.9003 108.1354 0002077  87.9337 272.2032 13.16596393 82771
ONEWEB-0281             
1 48999U 21060AJ  23062.85893249  .00000092  00000+0  20626-3 0  9998
2 48999  87.9001 107.9988 0002069  88.5192 271.6176 13.16596705 81550
